{
  "type": "FeatureCollection",
  "features": [
    {
      "type": "Feature",
      "properties": {
        "norad_id": 67095,
        "name": "STARLINK-36227",
        "group": "last-30-days",
        "lat": -33.27513800802947,
        "lon": 50.607643656119784,
        "alt_km": 324.13697501827755,
        "timestamp": "2025-12-24T09:46:29.718939+00:00",
        "meta_object_name": "STARLINK-36227",
        "meta_object_id": "2025-298W",
        "meta_epoch": "2025-12-24T04:00:01.998720",
        "meta_mean_motion": 15.84730955,
        "meta_eccentricity": 0.0003758,
        "meta_inclination": 69.9954,
        "meta_ra_of_asc_node": 217.4653,
        "meta_arg_of_pericenter": 272.9114,
        "meta_mean_anomaly": 10.9534,
        "meta_ephemeris_type": 0,
        "meta_classification_type": "U",
        "meta_norad_cat_id": 67095,
        "meta_element_set_no": 999,
        "meta_rev_at_epoch": 275,
        "meta_bstar": -0.0085712,
        "meta_mean_motion_dot": -0.01725844,
        "meta_mean_motion_ddot": 0,
        "tle_line1": "1 67095U 25298W   25358.16668980 -.01725844  00000+0 -85712-2 0  9997",
        "tle_line2": "2 67095  69.9954 217.4653 0003758 272.9114  10.9534 15.84730955  2751"
      },
      "geometry": {
        "type": "Point",
        "coordinates": [
          50.607643656119784,
          -33.27513800802947
        ]
      }
    },
    {
      "type": "Feature",
      "properties": {
        "norad_id": 67096,
        "name": "STARLINK-36228",
        "group": "last-30-days",
        "lat": -34.91214292354533,
        "lon": 51.50322180627494,
        "alt_km": 324.1009263376318,
        "timestamp": "2025-12-24T09:46:29.718951+00:00",
        "meta_object_name": "STARLINK-36228",
        "meta_object_id": "2025-298X",
        "meta_epoch": "2025-12-24T04:00:01.998720",
        "meta_mean_motion": 15.84733964,
        "meta_eccentricity": 0.0003849,
        "meta_inclination": 69.9955,
        "meta_ra_of_asc_node": 217.4634,
        "meta_arg_of_pericenter": 272.4919,
        "meta_mean_anomaly": 13.1697,
        "meta_ephemeris_type": 0,
        "meta_classification_type": "U",
        "meta_norad_cat_id": 67096,
        "meta_element_set_no": 999,
        "meta_rev_at_epoch": 275,
        "meta_bstar": -0.008559,
        "meta_mean_motion_dot": -0.0172405,
        "meta_mean_motion_ddot": 0,
        "tle_line1": "1 67096U 25298X   25358.16668980 -.01724050  00000+0 -85590-2 0  9990",
        "tle_line2": "2 67096  69.9955 217.4634 0003849 272.4919  13.1697 15.84733964  2759"
      },
      "geometry": {
        "type": "Point",
        "coordinates": [
          51.50322180627494,
          -34.91214292354533
        ]
      }
    },
    {
      "type": "Feature",
      "properties": {
        "norad_id": 67097,
        "name": "STARLINK-36222",
        "group": "last-30-days",
        "lat": -36.730737771357845,
        "lon": 52.545507570170564,
        "alt_km": 324.17849215526167,
        "timestamp": "2025-12-24T09:46:29.718963+00:00",
        "meta_object_name": "STARLINK-36222",
        "meta_object_id": "2025-298Y",
        "meta_epoch": "2025-12-24T04:00:01.998720",
        "meta_mean_motion": 15.84732111,
        "meta_eccentricity": 0.0003854,
        "meta_inclination": 69.9955,
        "meta_ra_of_asc_node": 217.4609,
        "meta_arg_of_pericenter": 273.7472,
        "meta_mean_anomaly": 13.9251,
        "meta_ephemeris_type": 0,
        "meta_classification_type": "U",
        "meta_norad_cat_id": 67097,
        "meta_element_set_no": 999,
        "meta_rev_at_epoch": 275,
        "meta_bstar": -0.0085732,
        "meta_mean_motion_dot": -0.01726397,
        "meta_mean_motion_ddot": 0,
        "tle_line1": "1 67097U 25298Y   25358.16668980 -.01726397  00000+0 -85732-2 0  9995",
        "tle_line2": "2 67097  69.9955 217.4609 0003854 273.7472  13.9251 15.84732111  2753"
      },
      "geometry": {
        "type": "Point",
        "coordinates": [
          52.545507570170564,
          -36.730737771357845
        ]
      }
    },
    {
      "type": "Feature",
      "properties": {
        "norad_id": 67098,
        "name": "STARLINK-36205",
        "group": "last-30-days",
        "lat": -38.69612613994267,
        "lon": 53.73591391864056,
        "alt_km": 324.2413963433273,
        "timestamp": "2025-12-24T09:46:29.718973+00:00",
        "meta_object_name": "STARLINK-36205",
        "meta_object_id": "2025-298Z",
        "meta_epoch": "2025-12-24T04:00:01.998720",
        "meta_mean_motion": 15.84719518,
        "meta_eccentricity": 0.0003794,
        "meta_inclination": 69.9955,
        "meta_ra_of_asc_node": 217.4584,
        "meta_arg_of_pericenter": 273.5454,
        "meta_mean_anomaly": 16.3178,
        "meta_ephemeris_type": 0,
        "meta_classification_type": "U",
        "meta_norad_cat_id": 67098,
        "meta_element_set_no": 999,
        "meta_rev_at_epoch": 281,
        "meta_bstar": -0.0085479,
        "meta_mean_motion_dot": -0.01721011,
        "meta_mean_motion_ddot": 0,
        "tle_line1": "1 67098U 25298Z   25358.16668980 -.01721011  00000+0 -85479-2 0  9992",
        "tle_line2": "2 67098  69.9955 217.4584 0003794 273.5454  16.3178 15.84719518  2815"
      },
      "geometry": {
        "type": "Point",
        "coordinates": [
          53.73591391864056,
          -38.69612613994267
        ]
      }
    },
    {
      "type": "Feature",
      "properties": {
        "norad_id": 67099,
        "name": "STARLINK-36193",
        "group": "last-30-days",
        "lat": -41.61681948779296,
        "lon": 55.64808578753561,
        "alt_km": 325.49748754122174,
        "timestamp": "2025-12-24T09:46:29.718983+00:00",
        "meta_object_name": "STARLINK-36193",
        "meta_object_id": "2025-298AA",
        "meta_epoch": "2025-12-24T04:00:01.998720",
        "meta_mean_motion": 15.84633602,
        "meta_eccentricity": 0.0003795,
        "meta_inclination": 69.9954,
        "meta_ra_of_asc_node": 217.4542,
        "meta_arg_of_pericenter": 270.4444,
        "meta_mean_anomaly": 22.9215,
        "meta_ephemeris_type": 0,
        "meta_classification_type": "U",
        "meta_norad_cat_id": 67099,
        "meta_element_set_no": 999,
        "meta_rev_at_epoch": 275,
        "meta_bstar": -0.012042,
        "meta_mean_motion_dot": -0.02409993,
        "meta_mean_motion_ddot": 0,
        "tle_line1": "1 67099U 25298AA  25358.16668980 -.02409993  00000+0 -12042-1 0  9991",
        "tle_line2": "2 67099  69.9954 217.4542 0003795 270.4444  22.9215 15.84633602  2752"
      },
      "geometry": {
        "type": "Point",
        "coordinates": [
          55.64808578753561,
          -41.61681948779296
        ]
      }
    },
    {
      "type": "Feature",
      "properties": {
        "norad_id": 67100,
        "name": "STARLINK-36215",
        "group": "last-30-days",
        "lat": -43.531512913947005,
        "lon": 57.01139260634836,
        "alt_km": 324.1383110535262,
        "timestamp": "2025-12-24T09:46:29.718992+00:00",
        "meta_object_name": "STARLINK-36215",
        "meta_object_id": "2025-298AB",
        "meta_epoch": "2025-12-24T04:00:01.998720",
        "meta_mean_motion": 15.84731506,
        "meta_eccentricity": 0.0003902,
        "meta_inclination": 69.9953,
        "meta_ra_of_asc_node": 217.452,
        "meta_arg_of_pericenter": 272.0008,
        "meta_mean_anomaly": 23.288,
        "meta_ephemeris_type": 0,
        "meta_classification_type": "U",
        "meta_norad_cat_id": 67100,
        "meta_element_set_no": 999,
        "meta_rev_at_epoch": 281,
        "meta_bstar": -0.0085606,
        "meta_mean_motion_dot": -0.01724221,
        "meta_mean_motion_ddot": 0,
        "tle_line1": "1 67100U 25298AB  25358.16668980 -.01724221  00000+0 -85606-2 0  9994",
        "tle_line2": "2 67100  69.9953 217.4520 0003902 272.0008  23.2880 15.84731506  2815"
      },
      "geometry": {
        "type": "Point",
        "coordinates": [
          57.01139260634836,
          -43.531512913947005
        ]
      }
    },
    {
      "type": "Feature",
      "properties": {
        "norad_id": 67101,
        "name": "STARLINK-36200",
        "group": "last-30-days",
        "lat": -40.26626025349013,
        "lon": 54.7409020337501,
        "alt_km": 324.1017470210245,
        "timestamp": "2025-12-24T09:46:29.719002+00:00",
        "meta_object_name": "STARLINK-36200",
        "meta_object_id": "2025-298AC",
        "meta_epoch": "2025-12-24T04:00:01.998720",
        "meta_mean_motion": 15.84729265,
        "meta_eccentricity": 0.0003808,
        "meta_inclination": 69.9957,
        "meta_ra_of_asc_node": 217.4567,
        "meta_arg_of_pericenter": 269.6507,
        "meta_mean_anomaly": 21.9575,
        "meta_ephemeris_type": 0,
        "meta_classification_type": "U",
        "meta_norad_cat_id": 67101,
        "meta_element_set_no": 999,
        "meta_rev_at_epoch": 281,
        "meta_bstar": -0.0085831,
        "meta_mean_motion_dot": -0.0172785,
        "meta_mean_motion_ddot": 0,
        "tle_line1": "1 67101U 25298AC  25358.16668980 -.01727850  00000+0 -85831-2 0  9996",
        "tle_line2": "2 67101  69.9957 217.4567 0003808 269.6507  21.9575 15.84729265  2817"
      },
      "geometry": {
        "type": "Point",
        "coordinates": [
          54.7409020337501,
          -40.26626025349013
        ]
      }
    }
  ]
}